OBJECT_NAME,OBJECT_ID,EPOCH,MEAN_MOTION,ECCENTRICITY,INCLINATION,RA_OF_ASC_NODE,ARG_OF_PERICENTER,MEAN_ANOMALY,EPHEMERIS_TYPE,CLASSIFICATION_TYPE,NORAD_CAT_ID,ELEMENT_SET_NO,REV_AT_EPOCH,BSTAR,MEAN_MOTION_DOT,MEAN_MOTION_DDOT
BEIDOU-2 IGSO-5 (C10),2011-073A,2026-07-02T17:30:18.330912,1.00270596,.01145273,47.6496,271.3544,222.0502,141.5350,0,U,37948,999,5329,0,-.128E-5,0
LUCH 5A (SDCM/PRN 140),2011-074B,2026-07-22T10:44:56.095008,1.00274767,.0002888,8.8408,73.2870,61.8063,133.3744,0,U,37951,999,5340,0,-.52E-6,0
BEIDOU-2 G5 (C05),2012-008A,2026-07-22T15:01:18.695712,1.00273248,.00070816,3.6601,69.4735,271.3589,243.5281,0,U,38091,999,5272,0,.58E-6,0
BEIDOU-2 M3 (C11),2012-018A,2026-07-21T00:24:35.481312,1.86229710,.00211095,55.7262,303.7342,272.1021,87.6870,0,U,38250,999,9657,0,-.103E-5,0
BEIDOU-2 M4 (C12),2012-018B,2026-07-20T22:47:10.972320,1.86229353,.00122504,55.6263,302.9476,272.0854,87.8062,0,U,38251,999,9657,0,-.102E-5,0
SES-5 (EGNOS/PRN 136),2012-036A,2026-07-22T07:55:21.910944,1.00271613,.00020581,0.0446,320.3526,156.7771,306.7623,0,U,38652,999,4480,0,.37E-6,0
BEIDOU-2 M6 (C14),2012-050B,2026-07-20T02:55:43.188960,1.86230986,.00127267,56.5733,61.8055,2.2324,357.8361,0,U,38775,999,9392,0,-.77E-6,0
GSAT-10 (GAGAN/PRN 128),2012-051B,2026-07-22T10:00:25.037280,1.00272627,.00076471,0.0731,263.1821,193.0679,77.0302,0,U,38779,999,5045,0,-.162E-5,0
GPS BIIF-3  (PRN 24),2012-053A,2026-07-21T05:14:54.394368,2.00568090,.01824077,53.5902,142.2050,66.3332,295.5491,0,U,38833,999,10012,0,.14E-6,0
GSAT0103 (GALILEO-FM3),2012-055A,2026-07-19T03:38:04.424640,1.70473478,.0003622,55.8248,100.6680,312.6356,47.3724,0,U,38857,999,8555,0,-.35E-6,0
BEIDOU-2 G6 (C02),2012-059A,2026-07-22T15:08:33.001728,1.00273179,.00089561,4.5091,73.1386,329.4301,208.9747,0,U,38953,999,5026,0,-.176E-5,0
LUCH 5B (SDCM/PRN 125),2012-061A,2026-07-22T07:49:22.485216,1.00270748,.00038155,10.5579,49.5290,142.6443,208.9363,0,U,38977,999,4995,0,-.142E-5,0
COSMOS 2485 (747),2013-019A,2026-07-20T05:27:30.719232,2.13103050,.00225577,65.4381,72.4960,230.6909,129.1761,0,U,39155,999,10298,0,-.49E-6,0
GPS BIIF-4  (PRN 27),2013-023A,2026-07-22T02:00:32.597568,2.00563446,.01414045,54.4778,267.5502,51.1079,310.2126,0,U,39166,999,9658,0,-.25E-6,0
IRNSS-1A,2013-034A,2026-07-21T16:45:42.393312,1.00271641,.00186759,35.7944,63.3755,179.5075,3.0224,0,U,39199,999,4771,0,.51E-6,0
GPS BIIF-5  (PRN 30),2014-008A,2026-07-22T02:03:14.362560,2.00562088,.00840292,53.6583,147.8962,231.5745,127.6466,0,U,39533,999,9038,0,.16E-6,0
ASTRA 5B (EGNOS/PRN 123),2014-011B,2026-07-22T08:00:43.896960,1.00272228,.00022024,0.0627,311.9113,176.3679,315.4243,0,U,39617,999,4502,0,.14E-5,0
COSMOS 2492 (754),2014-012A,2026-07-22T12:46:55.998912,2.13103176,.00103071,65.2744,312.7343,316.3437,43.5947,0,U,39620,999,9599,0,-.9E-6,0
IRNSS-1B,2014-017A,2026-07-21T16:45:34.905024,1.00267561,.00214021,28.8684,239.8086,191.2309,174.9116,0,U,39635,999,4514,0,.138E-5,0
LUCH 5V (SDCM/PRN 141),2014-023A,2026-07-22T15:11:32.714592,1.00271699,.00023213,5.2185,69.3754,78.5308,115.1011,0,U,39727,999,4471,0,-.269E-5,0
GPS BIIF-6  (PRN 06),2014-026A,2026-07-22T08:41:04.373088,2.00558522,.00381894,56.4791,330.1484,325.5817,34.1763,0,U,39741,999,8924,0,-.111E-5,0
COSMOS 2500 (755),2014-032A,2026-07-21T18:19:17.249376,2.13105857,.00085065,65.2101,312.5047,191.6060,168.3951,0,U,40001,999,9419,0,-.89E-6,0
GPS BIIF-7  (PRN 09),2014-045A,2026-07-21T22:54:59.869440,2.00560793,.00347204,55.3757,87.0795,118.5048,241.8949,0,U,40105,999,8677,0,-.67E-6,0
GSAT0201 (GALILEO 5),2014-050A,2026-07-21T21:53:14.723808,1.85519659,.16792967,48.8375,272.0101,180.7600,179.0021,0,U,40128,999,7896,0,-.55E-6,0
GSAT0202 (GALILEO 6),2014-050B,2026-07-21T15:04:54.669792,1.85520496,.16806659,48.8552,271.1079,181.4563,178.0378,0,U,40129,999,8112,0,-.55E-6,0
IRNSS-1C,2014-061A,2026-07-20T16:56:40.720704,1.00271443,.00219392,6.5999,88.2929,6.0783,181.3257,0,U,40269,999,4302,0,-.167E-5,0
GPS BIIF-8  (PRN 03),2014-068A,2026-07-22T07:43:42.296448,2.00553794,.00674505,57.0119,29.6026,72.5356,288.2395,0,U,40294,999,8591,0,-.8E-6,0
COSMOS 2501 (702K),2014-075A,2026-07-21T13:21:28.563840,2.13101380,.00225959,63.6189,189.1825,212.4587,147.4043,0,U,40315,999,9058,0,.9E-6,0
GPS BIIF-9  (PRN 26),2015-013A,2026-07-20T23:12:44.735616,2.00574219,.01103224,53.1254,202.7533,40.4930,320.3352,0,U,40534,999,8250,0,.74E-6,0
GSAT0203 (GALILEO 7),2015-017A,2026-07-21T05:37:49.022688,1.70476352,.00028415,56.7744,340.6686,253.2571,106.7061,0,U,40544,999,6978,0,-.108E-5,0
GSAT0204 (GALILEO 8),2015-017B,2026-07-20T07:36:55.747296,1.70475832,.0002939,56.7823,340.7123,234.3577,125.6085,0,U,40545,999,3281,0,-.108E-5,0
